RADCAL                  
1 22698U 93041A   07359.85075094  .00000071  00000-0  25168-4 0  9383
2 22698  89.5158  56.4772 0087366 278.8771  80.2545 14.22783737752581
STRV 1A                 
1 23125U 94034B   07356.38623517  .00010011  00000-0  98355-3 0  1223
2 23125   7.4719  20.1589 6889254  73.4436 347.4464  2.81241179124056
STRV 1B                 
1 23126U 94034C   07359.55663580  .00001272  00000-0  27544-3 0  1759
2 23126   7.4756 334.9650 6823100 163.8450 239.3121  2.88266614125992
HELIOS 1A               
1 23605U 95033A   07359.79541094  .00000069  00000-0  22276-4 0  5971
2 23605  98.1337 293.0699 0000951   5.4450 354.6790 14.63817467666267
REX 2                   
1 23814U 96014A   07359.71527727  .00000032  00000-0  93481-5 0  2718
2 23814  90.1544 262.6214 0020251 280.4911  79.4005 14.23830330612787
COSMOS 2346             
1 24953U 97052A   07359.95632206  .00000027  00000-0  11828-4 0   335
2 24953  82.9201 359.3182 0038438 204.7273 155.2051 13.79430460516287
ARGOS                   
1 25634U 99008A   07359.65690668  .00000201  00000-0  11888-3 0  3116
2 25634  99.0638  15.0079 0010832  45.7032 314.5020 14.18884860457531
HELIOS 1B               
1 25977U 99064A   07359.79514727 -.00000572  00000-0 -72510-4 0  7830
2 25977  98.2952 331.9573 0000556 201.7973 158.3226 14.77534327432271
MTI                     
1 26102U 00014A   07359.77020535  .00000275  00000-0  19772-4 0   882
2 26102  97.1844 184.0773 0019907 177.7237 305.3422 15.11353610427914
STRV 1C                 
1 26610U 00072C   07359.31032951 -.00000115  00000-0  00000-0 0  7392
2 26610   6.4140  96.3794 7318655  81.4161 347.6856  2.03457484 52829
OFEQ 5                  
1 27434U 02025A   07359.78395050  .00002051  00000-0  80701-4 0  6557
2 27434 143.4661 284.6301 0017802  53.3070 353.4873 15.14911757311916
HELIOS-2A               
1 28492U 04049A   07359.82819270  .00000015  00000-0  11871-4 0  4198
2 28492  98.1181 293.0552 0000624  57.0621 303.0648 14.63846244161233
ESSAIM-1                
1 28494U 04049C   07359.80181975  .00000069  00000-0  19860-4 0  4704
2 28494  98.1850 303.7070 0003722 131.0030 229.1513 14.70162953161832
ESSAIM-2                
1 28495U 04049D   07359.80136402  .00000104  00000-0  25692-4 0  5082
2 28495  98.1858 303.7717 0004654 129.3594 230.8038 14.70163063161833
ESSAIM-3                
1 28496U 04049E   07359.80201565  .00000172  00000-0  37054-4 0  4388
2 28496  98.1959 307.2785 0009419 148.3715 211.8071 14.70162983162017
ESSAIM-4                
1 28497U 04049F   07359.80155272  .00000123  00000-0  28907-4 0  4947
2 28497  98.1962 307.3062 0012676 146.5604 213.6414 14.70162930162010
MIDSTAR-1               
1 30773U 07006B   07359.85174735 -.00000301  00000-0  00000-0 0  2333
2 30773  46.0302 350.6183 0006219 174.3891 185.7076 15.23354389 44481
CFESAT                  
1 30777U 07006F   07359.82553066  .00000405  00000-0  33128-4 0  2124
2 30777  35.4312 132.2214 0003965 287.1917  72.8365 15.02362782 43887
NFIRE                   
1 31140U 07014A   07359.92662408  .00004319  00000-0  64403-4 0  3646
2 31140  48.2265 233.3703 0051368  70.3328 290.3147 15.55895612 38122
